NORAD_CAT_ID,OBJECT_NAME,OBJECT_TYPE,EPOCH,MEAN_MOTION,ECCENTRICITY,INCLINATION,RA_OF_ASC_NODE,ARG_OF_PERICENTER,MEAN_ANOMALY,BSTAR,MEAN_MOTION_DOT,MEAN_MOTION_DDOT,TLE_LINE0,TLE_LINE1,TLE_LINE2,SEMIMAJOR_AXIS,PERIOD,APOGEE,PERIGEE,DECAYED
52649.0,STARLINK-3868,PAYLOAD,2022-07-16 14:00:01,15.73321445,0.0003013,53.2147,129.0484,11.3536,71.4814,-0.00036123,-0.00051288,0.0,0 STARLINK-3868,1 52649U 22052BD  22197.58334491 -.00051288  00000-0 -36123-3 0  9999,2 52649  53.2147 129.0484 0003013  11.3536  71.4814 15.73321445  1308,6727.549,91.526,351.441,347.38699999999994,0.0
52649.0,STARLINK-3868,PAYLOAD,2022-07-16 20:00:01,15.7328527,0.0002948,53.2148,127.8107,11.9086,47.7183,0.00031298,0.000437,0.0,0 STARLINK-3868,1 52649U 22052BD  22197.83334491  .00043700  00000-0  31298-3 0  9993,2 52649  53.2148 127.8107 0002948  11.9086  47.7183 15.73285270 10309,6727.651999999999,91.528,351.5,347.534,0.0
52649.0,STARLINK-3868,PAYLOAD,2022-07-16 22:00:00,15.73320034,0.000298,53.2149,127.3988,11.2081,160.6568,-0.00030346,-0.00043223,0.0,0 STARLINK-3868,1 52649U 22052BD  22197.91667824 -.00043223  00000-0 -30346-3 0  9996,2 52649  53.2149 127.3988 0002980  11.2081 160.6568 15.73320034  1306,6727.553000000001,91.526,351.423,347.413,0.0
52649.0,STARLINK-3868,PAYLOAD,2022-07-17 04:00:01,15.732912,0.0003264,53.2152,126.1626,10.5473,138.1825,-0.00037819,-0.00053587,0.0,0 STARLINK-3868,1 52649U 22052BD  22198.16668981 -.00053587  00000-0 -37819-3 0  9995,2 52649  53.2152 126.1626 0003264  10.5473 138.1825 15.73291200 10352,6727.635,91.528,351.696,347.30400000000014,0.0
52649.0,STARLINK-3868,PAYLOAD,2022-07-17 12:00:00,15.7323302,0.000318,53.2147,124.5119,14.1924,223.4705,-0.0005921,-0.00083048,0.0,0 STARLINK-3868,1 52649U 22052BD  22198.50001157 -.00083048  00000-0 -59210-3 0  9993,2 52649  53.2147 124.5119 0003180  14.1924 223.4705 15.73233020 10400,6727.801,91.531,351.805,347.527,0.0
52649.0,STARLINK-3868,PAYLOAD,2022-07-17 14:00:01,15.73181927,0.0003072,53.2149,124.0992,15.3094,334.6051,2.7122e-05,3.183e-05,0.0,0 STARLINK-3868,1 52649U 22052BD  22198.58334491  .00003183  00000-0  27122-4 0  9999,2 52649  53.2149 124.0992 0003072  15.3094 334.6051 15.73181927  1303,6727.946999999999,91.534,351.879,347.745,0.0
52649.0,STARLINK-3868,PAYLOAD,2022-07-17 20:00:01,15.73206089,0.0002953,53.2154,122.8599,16.340999999999998,310.2491,-0.00044716,-0.00062943,0.0,0 STARLINK-3868,1 52649U 22052BD  22198.83334491 -.00062943  00000-0 -44716-3 0  9995,2 52649  53.2154 122.8599 0002953  16.3410 310.2491 15.73206089 10459,6727.878000000002,91.533,351.73,347.756,0.0
52649.0,STARLINK-3868,PAYLOAD,2022-07-17 22:00:00,15.73205056,0.0003005,53.2158,122.4478,15.3282,63.4931,-0.00065614,-0.00091756,0.0,0 STARLINK-3868,1 52649U 22052BD  22198.91667824 -.00091756  00000-0 -65614-3 0  9997,2 52649  53.2158 122.4478 0003005  15.3282  63.4931 15.73205056  1303,6727.880999999999,91.533,351.767,347.724,0.0
52649.0,STARLINK-3868,PAYLOAD,2022-07-18 12:00:00,15.7319466,0.0003058,53.214,119.5634,14.8863,129.4577,0.00014604,0.00019921,0.0,0 STARLINK-3868,1 52649U 22052BD  22199.50001157  .00019921  00000-0  14604-3 0  9999,2 52649  53.2140 119.5634 0003058  14.8863 129.4577 15.73194660 10567,6727.91,91.533,351.833,347.718,0.0
52649.0,STARLINK-3868,PAYLOAD,2022-07-18 14:00:01,15.73187318,0.0003002,53.2139,119.1506,15.4782,241.1001,0.00029054,0.00040335,0.0,0 STARLINK-3868,1 52649U 22052BD  22199.58334491  .00040335  00000-0  29054-3 0  9995,2 52649  53.2139 119.1506 0003002  15.4782 241.1001 15.73187318  1303,6727.931,91.534,351.816,347.777,0.0
52649.0,STARLINK-3868,PAYLOAD,2022-07-18 22:00:00,15.73211216,0.0003076,53.2146,117.5013,19.6222,325.8905,-0.0001252,-0.00018169,0.0,0 STARLINK-3868,1 52649U 22052BD  22199.91667824 -.00018169  00000-0 -12520-3 0  9993,2 52649  53.2146 117.5013 0003076  19.6222 325.8905 15.73211216  1300,6727.863,91.533,351.798,347.659,0.0
52649.0,STARLINK-3868,PAYLOAD,2022-07-19 14:00:01,15.73215413,0.0002971,53.214,114.2015,15.9078,147.5129,2.5907e-05,3.017e-05,0.0,0 STARLINK-3868,1 52649U 22052BD  22200.58334491  .00003017  00000-0  25907-4 0  9998,2 52649  53.2140 114.2015 0002971  15.9078 147.5129 15.73215413  1301,6727.851,91.532,351.715,347.717,0.0
52649.0,STARLINK-3868,PAYLOAD,2022-07-19 22:00:00,15.73256514,0.0002898,53.2153,112.5508,15.249,237.1137,-0.00082008,-0.0011447,0.0,0 STARLINK-3868,1 52649U 22052BD  22200.91667824 -.00114470  00000-0 -82008-3 0  9996,2 52649  53.2153 112.5508 0002898  15.2490 237.1137 15.73256514  1304,6727.734,91.53,351.5490000000001,347.649,0.0
52649.0,STARLINK-3868,PAYLOAD,2022-07-20 12:00:00,15.73219338,0.0002844,53.2134,109.665,8.6274,309.509,0.00020571,0.00028374,0.0,0 STARLINK-3868,1 52649U 22052BD  22201.50001157  .00028374  00000-0  20571-3 0  9995,2 52649  53.2134 109.6650 0002844   8.6274 309.5090 15.73219338 10872,6727.84,91.532,351.61800000000005,347.792,0.0
52649.0,STARLINK-3868,PAYLOAD,2022-07-20 14:00:01,15.73211144,0.0002781,53.2134,109.2522,7.9813,62.3999,0.00035166,0.00049051,0.0,0 STARLINK-3868,1 52649U 22052BD  22201.58334491  .00049051  00000-0  35166-3 0  9994,2 52649  53.2134 109.2522 0002781   7.9813  62.3999 15.73211144  1304,6727.863,91.533,351.599,347.857,0.0
52649.0,STARLINK-3868,PAYLOAD,2022-07-20 22:00:01,15.73269921,0.0002865,53.2137,107.6035,8.9969,150.4134,-0.0011691,-0.00162108,0.0,0 STARLINK-3868,1 52649U 22052BD  22201.91668981 -.00162108  00000-0 -11691-2 0  9992,2 52649  53.2137 107.6035 0002865   8.9969 150.4134 15.73269921 10940,6727.696,91.529,351.48800000000006,347.6330000000001,0.0
52649.0,STARLINK-3868,PAYLOAD,2022-07-21 06:00:00,15.73238115,0.0002903,53.2148,105.9538,7.0932,241.1091,-0.0010225,-0.0014199999999999,0.0,0 STARLINK-3868,1 52649U 22052BD  22202.25001157 -.00142000  00000-0 -10225-2 0  9997,2 52649  53.2148 105.9538 0002903   7.0932 241.1091 15.73238115 10990,6727.7869999999975,91.531,351.605,347.6980000000001,0.0
52649.0,STARLINK-3868,PAYLOAD,2022-07-21 12:00:00,15.73205282,0.0002877,53.214,104.7161,12.0002,212.9002,9.7189e-05,0.00013044,0.0,0 STARLINK-3868,1 52649U 22052BD  22202.50001157  .00013044  00000-0  97189-4 0  9994,2 52649  53.2140 104.7161 0002877  12.0002 212.9002 15.73205282 11038,6727.88,91.533,351.681,347.81,0.0
52649.0,STARLINK-3868,PAYLOAD,2022-07-21 14:00:01,15.73206005,0.0002848,53.2138,104.3033,12.8317,324.3709,6.9197e-05,9.103e-05,0.0,0 STARLINK-3868,1 52649U 22052BD  22202.58335648  .00009103  00000-0  69197-4 0  9996,2 52649  53.2138 104.3033 0002848  12.8317 324.3709 15.73206005  1309,6727.878000000002,91.533,351.659,347.827,0.0
52649.0,STARLINK-3868,PAYLOAD,2022-07-21 22:00:00,15.73192981,0.0002987,53.2137,102.6552,16.4351,49.6488,7.072899999999999e-05,9.314e-05,0.0,0 STARLINK-3868,1 52649U 22052BD  22202.91667824  .00009314  00000-0  70729-4 0  9994,2 52649  53.2137 102.6552 0002987  16.4351  49.6488 15.73192981  1305,6727.915,91.534,351.79,347.771,0.0
52649.0,STARLINK-3868,PAYLOAD,2022-07-22 06:00:00,15.73229987,0.0003057,53.2131,101.0062,13.4867,141.5291,-0.00034027,-0.00048179,0.0,0 STARLINK-3868,1 52649U 22052BD  22203.25001157 -.00048179  00000-0 -34027-3 0  9997,2 52649  53.2131 101.0062 0003057  13.4867 141.5291 15.73229987  1307,6727.81,91.531,351.731,347.61800000000005,0.0
52649.0,STARLINK-3868,PAYLOAD,2022-07-22 12:00:00,15.73165986,0.0002762,53.2134,99.7672,11.3453,120.3932,0.00054367,0.00076273,0.0,0 STARLINK-3868,1 52649U 22052BD  22203.50001157  .00076273  00000-0  54367-3 0  9998,2 52649  53.2134  99.7672 0002762  11.3453 120.3932 15.73165986 11193,6727.9919999999975,91.535,351.715,347.999,0.0
52649.0,STARLINK-3868,PAYLOAD,2022-07-22 22:00:00,15.732769400000002,0.0002872,53.214,97.7062,10.9711,321.9258,-0.00067466,-0.00094584,0.0,0 STARLINK-3868,1 52649U 22052BD  22203.91667824 -.00094584  00000-0 -67466-3 0  9993,2 52649  53.2140  97.7062 0002872  10.9711 321.9258 15.73276940  1300,6727.676,91.529,351.473,347.6090000000001,0.0
52649.0,STARLINK-3868,PAYLOAD,2022-07-23 14:00:01,15.73009525,0.000265,53.2168,94.4046,16.6931,134.0777,-0.004507,-0.00586364,0.0,0 STARLINK-3868,1 52649U 22052BD  22204.58335648 -.00586364  00000-0 -45070-2 0  9991,2 52649  53.2168  94.4046 0002650  16.6931 134.0777 15.73009525  1309,6728.438,91.544,352.086,348.52,0.0
52649.0,STARLINK-3868,PAYLOAD,2022-07-23 22:00:00,15.72593505,0.00031,53.2176,92.7584,10.0667,229.1072,-0.0085445,-0.01052392,0.0,0 STARLINK-3868,1 52649U 22052BD  22204.91667824 -.01052392  00000-0 -85445-2 0  9992,2 52649  53.2176  92.7584 0003100  10.0667 229.1072 15.72593505  1300,6729.625,91.568,353.576,349.404,0.0
52649.0,STARLINK-3868,PAYLOAD,2022-07-24 14:00:01,15.71074087,0.0002921999999999,53.2172,89.4683,6.3532,47.3786,-0.0091167,-0.01052256,0.0,0 STARLINK-3868,1 52649U 22052BD  22205.58334491 -.01052256  00000-0 -91167-2 0  9994,2 52649  53.2172  89.4683 0002922   6.3532  47.3786 15.71074087  1309,6733.9630000000025,91.657,357.796,353.86,0.0
52649.0,STARLINK-3868,PAYLOAD,2022-07-24 22:00:00,15.7032016,0.0003331,53.2172,87.8288,349.5526,150.085,-0.0094901,-0.01060322,0.0,0 STARLINK-3868,1 52649U 22052BD  22205.91667824 -.01060322  00000-0 -94901-2 0  9992,2 52649  53.2172  87.8288 0003331 349.5526 150.0850 15.70320160  1301,6736.118,91.701,360.227,355.73900000000015,0.0
52649.0,STARLINK-3868,PAYLOAD,2022-07-25 04:00:01,15.69753298,9.22e-05,53.2173,86.5993,321.1729,152.3623,-0.0097609,-0.01063434,0.0,0 STARLINK-3868,1 52649U 22052BD  22206.16668981 -.01063434  00000-0 -97609-2 0  9990,2 52649  53.2173  86.5993 0000922 321.1729 152.3623 15.69753298 11613,6737.74,91.734,360.226,358.9840000000001,0.0
52649.0,STARLINK-3868,PAYLOAD,2022-07-25 14:00:01,15.68795281,0.0001349,53.2174,84.5497,38.9361,269.785,-0.010012,-0.01049752,0.0,0 STARLINK-3868,1 52649U 22052BD  22206.58334491 -.01049752  00000-0 -10012-1 0  9991,2 52649  53.2174  84.5497 0001349  38.9361 269.7850 15.68795281  1307,6740.483,91.79,363.257,361.43800000000016,0.0
